XRISM                   
1 57800U 23137A   24030.57567157  .00005689  00000+0  44697-3 0  9998
2 57800  31.0023 173.6808 0009865 276.2596  83.6915 14.99404463 21772
